TDRS 3                  
1 19548U 88091B   26154.91360271 -.00000292  00000+0  00000+0 0  9992
2 19548  12.6123 341.0888 0038733 356.7358 194.4452  1.00279290125251
FLTSATCOM 8 (USA 46)    
1 20253U 89077A   26154.94819336 -.00000362  00000+0  00000+0 0  9994
2 20253  12.4251 351.2470 0005696  32.6477 335.1345  1.00260894260435
SKYNET 4C               
1 20776U 90079A   26155.14398122  .00000133  00000+0  00000+0 0  9991
2 20776  13.3446 349.9021 0002876  85.5950 262.2921  1.00271684130757
TDRS 5                  
1 21639U 91054B   26154.74762398  .00000090  00000+0  00000+0 0  9991
2 21639  14.0730 353.8784 0005898 280.1326  79.6806  1.00270054127575
TDRS 6                  
1 22314U 93003B   26154.91438271 -.00000289  00000+0  00000+0 0  9998
2 22314  14.1828 357.1601 0007200 179.7110 358.8043  1.00276224122275
UFO 2 (USA 95)          
1 22787U 93056A   26154.74754959  .00000131  00000+0  00000+0 0  9990
2 22787  11.8905   3.6320 0006605   3.7751 182.5437  1.00270301118415
USA 99 (MILSTAR-1 1)    
1 22988U 94009A   26155.15273457  .00000019  00000+0  00000+0 0  9992
2 22988  17.6073  27.8410 0000515 214.9748 142.5652  0.98720405 32817
UFO 4 (USA 108)         
1 23467U 95003A   26154.81495426 -.00000015  00000+0  00000+0 0  9991
2 23467   9.7048  13.2788 0003006  50.7243 293.8507  1.00270413114818
TDRS 7                  
1 23613U 95035B   26155.01233433 -.00000232  00000+0  00000+0 0  9991
2 23613  13.3827 348.2835 0011043  74.5787 283.1761  1.00267924113117
USA 115 (MILSTAR-1 2)   
1 23712U 95060A   26155.11764347 -.00000160  00000+0  00000+0 0  9993
2 23712  14.0683   3.8458 0001644 118.2804  74.1930  1.00367007 32751
INMARSAT 3-F1           
1 23839U 96020A   26155.18239306 -.00000189  00000+0  00000+0 0  9990
2 23839  10.5753  46.7550 0003508  31.5250 158.5298  0.99981234110125
INMARSAT 3-F2           
1 24307U 96053A   26154.59788066 -.00000143  00000+0  00000+0 0  9993
2 24307   9.8277  54.0758 0006674  17.8020 197.8974  1.00004601108782
INMARSAT 3-F3           
1 24674U 96070A   26154.79202025  .00000106  00000+0  00000+0 0  9995
2 24674  10.2903  49.7823 0003550  10.8619 173.3497  0.99976933107772
AMC-3                   
1 24936U 97050A   26153.33139185 -.00000254  00000+0  00000+0 0  9995
2 24936   8.1093  64.2608 0003341  16.7338 217.0861  1.00270299 52284
USA 134                 
1 25019U 97065A   26154.42062515 -.00000058  00000+0  00000+0 0  9999
2 25019  12.7680  21.8256 0003989 343.1215 286.1924  1.00271873 32810
INMARSAT 3-F5           
1 25153U 98006B   26155.12660286 -.00000283  00000+0  00000+0 0  9991
2 25153   9.6641  53.3888 0004995  15.3960 175.4049  1.00273794103760
ABS-6                   
1 25924U 99053A   26155.09745007 -.00000108  00000+0  00000+0 0  9997
2 25924   0.0153 123.1295 0003076 311.6052  11.9146  1.00269881 97711
UFO 10 (USA 146)        
1 25967U 99063A   26153.99200895 -.00000181  00000+0  00000+0 0  9994
2 25967   9.8534  27.2872 0001940  17.6670 180.6760  1.00273735 97203
ASIASTAR                
1 26107U 00016A   26154.73029057 -.00000325  00000+0  00000+0 0  9993
2 26107   9.0990  58.2991 0005081  17.3948 184.4054  1.00269951 95783
USA 149 (DSP 20)        
1 26356U 00024A   26154.53978383  .00000100  00000+0  00000+0 0  9991
2 26356  13.1603  11.9497 0001666 325.1418 303.8488  1.00270248 32779
TDRS 8                  
1 26388U 00034A   26154.67218632 -.00000188  00000+0  00000+0 0  9993
2 26388  12.6631  31.4385 0004998   8.4360 179.0303  1.00269706 95045
NSS-11                  
1 26554U 00059A   26155.10091676  .00000036  00000+0  00000+0 0  9992
2 26554   2.0926  81.5427 0003255 351.3110  32.0182  1.00271980 41165
USA 153                 
1 26575U 00065A   26154.52230144 -.00000317  00000+0  00000+0 0  9995
2 26575  11.6015  35.5353 0003273  43.0303 135.9464  1.00273319 32792
AMC-6                   
1 26580U 00067A   26155.15253243  .00000100  00000+0  00000+0 0  9997
2 26580   0.1191  82.9266 0003841   0.3644  89.1933  1.00273657 93760
USA 157 (MILSTAR-2 2)   
1 26715U 01009A   26154.82214763  .00000117  00000+0  00000+0 0  9999
2 26715  11.5279  19.8471 0038712 176.8476 201.5054  1.00269950 32811
USA 159 (DSP 21)        
1 26880U 01033A   26154.98674718 -.00000255  00000+0  00000+0 0  9990
2 26880  12.7694  16.5323 0001468 111.5412  79.5549  0.99201951 32829
INTELSAT 902 (IS-902)   
1 26900U 01039A   26155.12738286 -.00000273  00000+0  00000+0 0  9997
2 26900   6.0855  71.9400 0004270 358.4188 177.9689  1.00271726 90567
USA 164 (MILSTAR-2 3)   
1 27168U 02001A   26154.85577243  .00000104  00000+0  00000+0 0  9999
2 27168  11.1637  21.9879 0099631   8.1702 189.1455  1.00273246 32820
INTELSAT 904 (IS-904)   
1 27380U 02007A   26155.05981178 -.00000216  00000+0  00000+0 0  9995
2 27380   6.8873  69.3413 0007283 358.6598 174.5572  1.00271044 51639
DIRECTV 5 (TEMPO 1)     
1 27426U 02023A   26154.62667259 -.00000047  00000+0  00000+0 0  9999
2 27426   4.8432  75.4778 0003563   3.0335 289.0745  1.00271884 87981
INTELSAT 905 (IS-905)   
1 27438U 02027A   26154.63287483  .00000103  00000+0  00000+0 0  9996
2 27438   6.7196  69.9626 0004265  10.2968 262.4516  1.00271994 51225
