OBJECT_NAME,OBJECT_ID,EPOCH,MEAN_MOTION,ECCENTRICITY,INCLINATION,RA_OF_ASC_NODE,ARG_OF_PERICENTER,MEAN_ANOMALY,EPHEMERIS_TYPE,CLASSIFICATION_TYPE,NORAD_CAT_ID,ELEMENT_SET_NO,REV_AT_EPOCH,BSTAR,MEAN_MOTION_DOT,MEAN_MOTION_DDOT
TDRS 3,1988-091B,2026-06-03T21:55:35.274144,1.00279290,.0038733,12.6123,341.0888,356.7358,194.4452,0,U,19548,999,12525,0,-.292E-5,0
FLTSATCOM 8 (USA 46),1989-077A,2026-06-03T22:45:23.906304,1.00260894,.0005696,12.4251,351.2470,32.6477,335.1345,0,U,20253,999,26043,0,-.362E-5,0
SKYNET 4C,1990-079A,2026-06-04T03:27:19.977408,1.00271684,.0002876,13.3446,349.9021,85.5950,262.2921,0,U,20776,999,13075,0,.133E-5,0
TDRS 5,1991-054B,2026-06-03T17:56:34.711872,1.00270054,.00058989,14.0730,353.8784,280.1326,79.6806,0,U,21639,999,12757,0,.9E-6,0
TDRS 6,1993-003B,2026-06-03T21:56:42.666144,1.00276224,.00072,14.1828,357.1601,179.7110,358.8043,0,U,22314,999,12227,0,-.289E-5,0
UFO 2 (USA 95),1993-056A,2026-06-03T17:56:28.284576,1.00270301,.00066058,11.8905,3.6320,3.7751,182.5437,0,U,22787,999,11841,0,.131E-5,0
USA 99 (MILSTAR-1 1),1994-009A,2026-06-04T03:39:56.266848,0.98720405,.0000515,17.6073,27.8410,214.9748,142.5652,0,U,22988,999,3281,0,.19E-6,0
UFO 4 (USA 108),1995-003A,2026-06-03T19:33:32.048064,1.00270413,.00030068,9.7048,13.2788,50.7243,293.8507,0,U,23467,999,11481,0,-.15E-6,0
TDRS 7,1995-035B,2026-06-04T00:17:45.686112,1.00267924,.0011043,13.3827,348.2835,74.5787,283.1761,0,U,23613,999,11311,0,-.232E-5,0
USA 115 (MILSTAR-1 2),1995-060A,2026-06-04T02:49:24.395808,1.00367007,.0001644,14.0683,3.8458,118.2804,74.1930,0,U,23712,999,3275,0,-.16E-5,0
INMARSAT 3-F1,1996-020A,2026-06-04T04:22:38.760384,0.99981234,.0003508,10.5753,46.7550,31.5250,158.5298,0,U,23839,999,11012,0,-.189E-5,0
INMARSAT 3-F2,1996-053A,2026-06-03T14:20:56.889024,1.00004601,.0006674,9.8277,54.0758,17.8020,197.8974,0,U,24307,999,10878,0,-.143E-5,0
INMARSAT 3-F3,1996-070A,2026-06-03T19:00:30.549600,0.99976933,.00035508,10.2903,49.7823,10.8619,173.3497,0,U,24674,999,10777,0,.106E-5,0
AMC-3,1997-050A,2026-06-02T07:57:12.255840,1.00270299,.00033411,8.1093,64.2608,16.7338,217.0861,0,U,24936,999,5228,0,-.254E-5,0
USA 134,1997-065A,2026-06-03T10:05:42.012960,1.00271873,.00039899,12.7680,21.8256,343.1215,286.1924,0,U,25019,999,3281,0,-.58E-6,0
INMARSAT 3-F5,1998-006B,2026-06-04T03:02:18.487104,1.00273794,.0004995,9.6641,53.3888,15.3960,175.4049,0,U,25153,999,10376,0,-.283E-5,0
ABS-6,1999-053A,2026-06-04T02:20:19.686048,1.00269881,.0003076,0.0153,123.1295,311.6052,11.9146,0,U,25924,999,9771,0,-.108E-5,0
UFO 10 (USA 146),1999-063A,2026-06-02T23:48:29.573280,1.00273735,.00019407,9.8534,27.2872,17.6670,180.6760,0,U,25967,999,9720,0,-.181E-5,0
ASIASTAR,2000-016A,2026-06-03T17:31:37.105248,1.00269951,.00050814,9.0990,58.2991,17.3948,184.4054,0,U,26107,999,9578,0,-.325E-5,0
USA 149 (DSP 20),2000-024A,2026-06-03T12:57:17.322912,1.00270248,.00016663,13.1603,11.9497,325.1418,303.8488,0,U,26356,999,3277,0,.1E-5,0
TDRS 8,2000-034A,2026-06-03T16:07:56.898048,1.00269706,.00049985,12.6631,31.4385,8.4360,179.0303,0,U,26388,999,9504,0,-.188E-5,0
NSS-11,2000-059A,2026-06-04T02:25:19.208064,1.00271980,.0003255,2.0926,81.5427,351.3110,32.0182,0,U,26554,999,4116,0,.36E-6,0
USA 153,2000-065A,2026-06-03T12:32:06.844416,1.00273319,.00032731,11.6015,35.5353,43.0303,135.9464,0,U,26575,999,3279,0,-.317E-5,0
AMC-6,2000-067A,2026-06-04T03:39:38.801952,1.00273657,.0003841,0.1191,82.9266,0.3644,89.1933,0,U,26580,999,9376,0,.1E-5,0
USA 157 (MILSTAR-2 2),2001-009A,2026-06-03T19:43:53.555232,1.00269950,.00387122,11.5279,19.8471,176.8476,201.5054,0,U,26715,999,3281,0,.117E-5,0
USA 159 (DSP 21),2001-033A,2026-06-03T23:40:54.956352,0.99201951,.0001468,12.7694,16.5323,111.5412,79.5549,0,U,26880,999,3282,0,-.255E-5,0
INTELSAT 902 (IS-902),2001-039A,2026-06-04T03:03:25.879104,1.00271726,.000427,6.0855,71.9400,358.4188,177.9689,0,U,26900,999,9056,0,-.273E-5,0
USA 164 (MILSTAR-2 3),2002-001A,2026-06-03T20:32:18.737952,1.00273246,.00996312,11.1637,21.9879,8.1702,189.1455,0,U,27168,999,3282,0,.104E-5,0
INTELSAT 904 (IS-904),2002-007A,2026-06-04T01:26:07.737792,1.00271044,.0007283,6.8873,69.3413,358.6598,174.5572,0,U,27380,999,5163,0,-.216E-5,0
DIRECTV 5 (TEMPO 1),2002-023A,2026-06-03T15:02:24.511776,1.00271884,.00035638,4.8432,75.4778,3.0335,289.0745,0,U,27426,999,8798,0,-.47E-6,0
INTELSAT 905 (IS-905),2002-027A,2026-06-03T15:11:20.385312,1.00271994,.00042654,6.7196,69.9626,10.2968,262.4516,0,U,27438,999,5122,0,.103E-5,0
